start=new Date('2021-12-11T00:00:00.000Z').valueOf();
sats=[{"MEAN_MOTION_DDOT":"0.0000000000000","RCS_SIZE":"LARGE","APOAPSIS":"548.942","MEAN_MOTION":"15.06392699","OBJECT_NAME":"STARLINK-2224","CLASSIFICATION_TYPE":"U","EPHEMERIS_TYPE":"0","SITE":"AFETR","ELEMENT_SET_NO":"999","SEMIMAJOR_AXIS":"6925.371","LAUNCH_DATE":"2021-05-15","TLE_LINE2":"2 48573  53.0537 249.0248 0002463  62.8555 297.2685 15.06392699 31606","OBJECT_TYPE":"PAYLOAD","RA_OF_ASC_NODE":"249.0248","EPOCH":"2021-12-10T20:53:07.502208","FILE":"3237005","ARG_OF_PERICENTER":"62.8555","ECCENTRICITY":"0.00024630","NORAD_CAT_ID":"48573","PERIAPSIS":"545.530","MEAN_ANOMALY":"297.2685","REV_AT_EPOCH":"3160","TIME_SYSTEM":"UTC","BSTAR":"-0.00005652800000","MEAN_MOTION_DOT":"-0.00001124","TLE_LINE1":"1 48573U 21041W   21344.87022572 -.00001124  00000-0 -56528-4 0  9992","MEAN_ELEMENT_THEORY":"SGP4","DECAY_DATE":null,"INCLINATION":"53.0537","GP_ID":"191459730","REF_FRAME":"TEME","PERIOD":"95.593","COUNTRY_CODE":"US","CENTER_NAME":"EARTH","OBJECT_ID":"2021-041W"},{"MEAN_ANOMALY":"28.7735","TIME_SYSTEM":"UTC","REV_AT_EPOCH":"358","BSTAR":"-0.00154300000000","PERIAPSIS":"545.394","INCLINATION":"53.0425","GP_ID":"191460284","PERIOD":"95.591","REF_FRAME":"TEME","COUNTRY_CODE":"US","CENTER_NAME":"EARTH","OBJECT_ID":"2021-041X","MEAN_MOTION_DOT":"-0.00023199","TLE_LINE1":"1 48574U 21041X   21344.91667824 -.00023199  00000-0 -15430-2 0  9994","MEAN_ELEMENT_THEORY":"SGP4","DECAY_DATE":null,"CLASSIFICATION_TYPE":"U","EPHEMERIS_TYPE":"0","SITE":"AFETR","MEAN_MOTION_DDOT":"0.0000000000000","RCS_SIZE":"LARGE","APOAPSIS":"548.968","MEAN_MOTION":"15.06410560","OBJECT_NAME":"STARLINK-2225","EPOCH":"2021-12-10T22:00:00.999936","FILE":"3237005","ARG_OF_PERICENTER":"73.5673","ECCENTRICITY":"0.00025800","NORAD_CAT_ID":"48574","ELEMENT_SET_NO":"999","SEMIMAJOR_AXIS":"6925.316","TLE_LINE2":"2 48574  53.0425 218.8603 0002580  73.5673  28.7735 15.06410560  3589","LAUNCH_DATE":"2021-05-15","OBJECT_TYPE":"PAYLOAD","RA_OF_ASC_NODE":"218.8603"},{"CLASSIFICATION_TYPE":"U","SITE":"AFETR","EPHEMERIS_TYPE":"0","MEAN_MOTION":"15.42389902","OBJECT_NAME":"STARLINK-2227","RCS_SIZE":"LARGE","MEAN_MOTION_DDOT":"0.0000000000000","APOAPSIS":"440.791","NORAD_CAT_ID":"48575","ECCENTRICITY":"0.00025390","FILE":"3236902","EPOCH":"2021-12-11T00:00:00.999648","ARG_OF_PERICENTER":"22.9259","RA_OF_ASC_NODE":"210.3006","TLE_LINE2":"2 48575  53.0548 210.3006 0002539  22.9259 234.3335 15.42389902 32614","OBJECT_TYPE":"PAYLOAD","LAUNCH_DATE":"2021-05-15","ELEMENT_SET_NO":"999","SEMIMAJOR_AXIS":"6817.195","REV_AT_EPOCH":"3261","TIME_SYSTEM":"UTC","BSTAR":"-0.01785300000000","MEAN_ANOMALY":"234.3335","PERIAPSIS":"437.329","PERIOD":"93.362","REF_FRAME":"TEME","CENTER_NAME":"EARTH","OBJECT_ID":"2021-041Y","COUNTRY_CODE":"US","GP_ID":"191434526","INCLINATION":"53.0548","DECAY_DATE":null,"MEAN_MOTION_DOT":"-0.00723882","MEAN_ELEMENT_THEORY":"SGP4","TLE_LINE1":"1 48575U 21041Y   21345.00001157 -.00723882  00000-0 -17853-1 0  9993"},{"DECAY_DATE":null,"TLE_LINE1":"1 48576U 21041Z   21344.91667824 -.00021647  00000-0 -14389-2 0  9994","MEAN_ELEMENT_THEORY":"SGP4","MEAN_MOTION_DOT":"-0.00021647","COUNTRY_CODE":"US","CENTER_NAME":"EARTH","OBJECT_ID":"2021-041Z","PERIOD":"95.592","REF_FRAME":"TEME","GP_ID":"191461024","INCLINATION":"53.0538","PERIAPSIS":"546.028","BSTAR":"-0.00143890000000","REV_AT_EPOCH":"358","TIME_SYSTEM":"UTC","MEAN_ANOMALY":"315.3240","TLE_LINE2":"2 48576  53.0538 223.7304 0001730  14.1982 315.3240 15.06396055  3587","OBJECT_TYPE":"PAYLOAD","LAUNCH_DATE":"2021-05-15","RA_OF_ASC_NODE":"223.7304","SEMIMAJOR_AXIS":"6925.361","ELEMENT_SET_NO":"999","ECCENTRICITY":"0.00017300","NORAD_CAT_ID":"48576","ARG_OF_PERICENTER":"14.1982","EPOCH":"2021-12-10T22:00:00.999936","FILE":"3237005","OBJECT_NAME":"STARLINK-2228","MEAN_MOTION":"15.06396055","APOAPSIS":"548.424","MEAN_MOTION_DDOT":"0.0000000000000","RCS_SIZE":"LARGE","SITE":"AFETR","EPHEMERIS_TYPE":"0","CLASSIFICATION_TYPE":"U"},{"PERIAPSIS":"545.638","MEAN_ANOMALY":"295.5746","BSTAR":"0.00007756200000","REV_AT_EPOCH":"3207","TIME_SYSTEM":"UTC","TLE_LINE1":"1 48577U 21041AA  21344.99555123  .00000873  00000-0  77562-4 0  9991","MEAN_ELEMENT_THEORY":"SGP4","MEAN_MOTION_DOT":"0.00000873","DECAY_DATE":null,"GP_ID":"191434296","INCLINATION":"53.0537","COUNTRY_CODE":"US","CENTER_NAME":"EARTH","OBJECT_ID":"2021-041AA","REF_FRAME":"TEME","PERIOD":"95.593","APOAPSIS":"548.834","MEAN_MOTION_DDOT":"0.0000000000000","RCS_SIZE":"LARGE","OBJECT_NAME":"STARLINK-2231","MEAN_MOTION":"15.06392630","EPHEMERIS_TYPE":"0","SITE":"AFETR","CLASSIFICATION_TYPE":"U","SEMIMAJOR_AXIS":"6925.371","ELEMENT_SET_NO":"999","LAUNCH_DATE":"2021-05-15","TLE_LINE2":"2 48577  53.0537 248.4683 0002307  64.5482 295.5746 15.06392630 32077","OBJECT_TYPE":"PAYLOAD","RA_OF_ASC_NODE":"248.4683","ARG_OF_PERICENTER":"64.5482","EPOCH":"2021-12-10T23:53:35.626272","FILE":"3236902","ECCENTRICITY":"0.00023070","NORAD_CAT_ID":"48577"},{"CENTER_NAME":"EARTH","OBJECT_ID":"2021-041AB","COUNTRY_CODE":"US","PERIOD":"95.593","REF_FRAME":"TEME","GP_ID":"191459916","INCLINATION":"53.0565","DECAY_DATE":null,"MEAN_ELEMENT_THEORY":"SGP4","TLE_LINE1":"1 48578U 21041AB  21344.71078609  .00000861  00000-0  76708-4 0  9999","MEAN_MOTION_DOT":"0.00000861","BSTAR":"0.00007670800000","TIME_SYSTEM":"UTC","REV_AT_EPOCH":"3158","MEAN_ANOMALY":"299.8708","PERIAPSIS":"545.607","NORAD_CAT_ID":"48578","ECCENTRICITY":"0.00023550","ARG_OF_PERICENTER":"60.2515","FILE":"3237005","EPOCH":"2021-12-10T17:03:31.918176","RA_OF_ASC_NODE":"249.7408","TLE_LINE2":"2 48578  53.0565 249.7408 0002355  60.2515 299.8708 15.06391899 31587","LAUNCH_DATE":"2021-05-15","OBJECT_TYPE":"PAYLOAD","SEMIMAJOR_AXIS":"6925.373","ELEMENT_SET_NO":"999","SITE":"AFETR","EPHEMERIS_TYPE":"0","CLASSIFICATION_TYPE":"U","OBJECT_NAME":"STARLINK-2232","MEAN_MOTION":"15.06391899","APOAPSIS":"548.869","RCS_SIZE":"LARGE","MEAN_MOTION_DDOT":"0.0000000000000"},{"PERIAPSIS":"545.649","MEAN_ANOMALY":"292.2133","BSTAR":"0.00007079700000","REV_AT_EPOCH":"3158","TIME_SYSTEM":"UTC","MEAN_ELEMENT_THEORY":"SGP4","TLE_LINE1":"1 48579U 21041AC  21344.71909998  .00000773  00000-0  70797-4 0  9998","MEAN_MOTION_DOT":"0.00000773","DECAY_DATE":null,"GP_ID":"191460840","INCLINATION":"53.0562","OBJECT_ID":"2021-041AC","CENTER_NAME":"EARTH","COUNTRY_CODE":"US","PERIOD":"95.592","REF_FRAME":"TEME","APOAPSIS":"548.796","RCS_SIZE":"LARGE","MEAN_MOTION_DDOT":"0.0000000000000","OBJECT_NAME":"STARLINK-2233","MEAN_MOTION":"15.06397099","EPHEMERIS_TYPE":"0","SITE":"AFETR","CLASSIFICATION_TYPE":"U","SEMIMAJOR_AXIS":"6925.357","ELEMENT_SET_NO":"999","RA_OF_ASC_NODE":"249.7127","TLE_LINE2":"2 48579  53.0562 249.7127 0002272  67.9097 292.2133 15.06397099 31587","OBJECT_TYPE":"PAYLOAD","LAUNCH_DATE":"2021-05-15","ARG_OF_PERICENTER":"67.9097","FILE":"3237005","EPOCH":"2021-12-10T17:15:30.238272","NORAD_CAT_ID":"48579","ECCENTRICITY":"0.00022720"},{"SITE":"AFETR","EPHEMERIS_TYPE":"0","CLASSIFICATION_TYPE":"U","APOAPSIS":"549.658","RCS_SIZE":"LARGE","MEAN_MOTION_DDOT":"0.0000000000000","OBJECT_NAME":"STARLINK-2234","MEAN_MOTION":"15.06378265","ARG_OF_PERICENTER":"67.0325","FILE":"3236903","EPOCH":"2021-12-11T00:00:00.999648","NORAD_CAT_ID":"48580","ECCENTRICITY":"0.00034340","SEMIMAJOR_AXIS":"6925.415","ELEMENT_SET_NO":"999","RA_OF_ASC_NODE":"223.4478","TLE_LINE2":"2 48580  53.0543 223.4478 0003434  67.0325 199.9589 15.06378265 32439","LAUNCH_DATE":"2021-05-15","OBJECT_TYPE":"PAYLOAD","MEAN_ANOMALY":"199.9589","BSTAR":"0.00041751000000","REV_AT_EPOCH":"3243","TIME_SYSTEM":"UTC","PERIAPSIS":"544.902","GP_ID":"191434529","INCLINATION":"53.0543","CENTER_NAME":"EARTH","OBJECT_ID":"2021-041AD","COUNTRY_CODE":"US","PERIOD":"95.594","REF_FRAME":"TEME","MEAN_ELEMENT_THEORY":"SGP4","TLE_LINE1":"1 48580U 21041AD  21345.00001157  .00005939  00000-0  41751-3 0  9999","MEAN_MOTION_DOT":"0.00005939","DECAY_DATE":null},{"PERIAPSIS":"546.049","REV_AT_EPOCH":"361","TIME_SYSTEM":"UTC","BSTAR":"-0.00125830000000","MEAN_ANOMALY":"299.7690","DECAY_DATE":null,"MEAN_MOTION_DOT":"-0.00018979","TLE_LINE1":"1 48581U 21041AE  21344.91667824 -.00018979  00000-0 -12583-2 0  9998","MEAN_ELEMENT_THEORY":"SGP4","REF_FRAME":"TEME","PERIOD":"95.592","COUNTRY_CODE":"US","CENTER_NAME":"EARTH","OBJECT_ID":"2021-041AE","INCLINATION":"53.0617","GP_ID":"191459731","MEAN_MOTION":"15.06409897","OBJECT_NAME":"STARLINK-2235","MEAN_MOTION_DDOT":"0.0000000000000","RCS_SIZE":"LARGE","APOAPSIS":"548.318","CLASSIFICATION_TYPE":"U","SITE":"AFETR","EPHEMERIS_TYPE":"0","TLE_LINE2":"2 48581  53.0617 213.7580 0001638  90.0543 299.7690 15.06409897  3616","LAUNCH_DATE":"2021-05-15","OBJECT_TYPE":"PAYLOAD","RA_OF_ASC_NODE":"213.7580","ELEMENT_SET_NO":"999","SEMIMAJOR_AXIS":"6925.318","ECCENTRICITY":"0.00016380","NORAD_CAT_ID":"48581","EPOCH":"2021-12-10T22:00:00.999936","FILE":"3237005","ARG_OF_PERICENTER":"90.0543"},{"CLASSIFICATION_TYPE":"U","EPHEMERIS_TYPE":"0","SITE":"AFETR","RCS_SIZE":"LARGE","MEAN_MOTION_DDOT":"0.0000000000000","APOAPSIS":"548.866","MEAN_MOTION":"15.06394939","OBJECT_NAME":"STARLINK-2236","FILE":"3236913","EPOCH":"2021-12-11T00:00:00.999648","ARG_OF_PERICENTER":"67.8693","NORAD_CAT_ID":"48582","ECCENTRICITY":"0.00023640","ELEMENT_SET_NO":"999","SEMIMAJOR_AXIS":"6925.364","RA_OF_ASC_NODE":"213.4430","TLE_LINE2":"2 48582  53.0525 213.4430 0002364  67.8693 234.1422 15.06394939 32574","LAUNCH_DATE":"2021-05-15","OBJECT_TYPE":"PAYLOAD","MEAN_ANOMALY":"234.1422","REV_AT_EPOCH":"3257","TIME_SYSTEM":"UTC","BSTAR":"0.00095223000000","PERIAPSIS":"545.592","INCLINATION":"53.0525","GP_ID":"191434637","REF_FRAME":"TEME","PERIOD":"95.592","CENTER_NAME":"EARTH","OBJECT_ID":"2021-041AF","COUNTRY_CODE":"US","MEAN_MOTION_DOT":"0.00013928","MEAN_ELEMENT_THEORY":"SGP4","TLE_LINE1":"1 48582U 21041AF  21345.00001157  .00013928  00000-0  95223-3 0  9991","DECAY_DATE":null}];
